[{"OBJECT_NAME":"STARLINK-31205","OBJECT_ID":"2024-038Z","EPOCH":"2026-03-09T22:20:46.705632","MEAN_MOTION":15.27579241,"ECCENTRICITY":0.00014319,"INCLINATION":43.0066,"RA_OF_ASC_NODE":22.331,"ARG_OF_PERICENTER":273.5775,"MEAN_ANOMALY":86.4913,"EPHEMERIS_TYPE":0,"CLASSIFICATION_TYPE":"U","NORAD_CAT_ID":59046,"ELEMENT_SET_NO":999,"REV_AT_EPOCH":11483,"BSTAR":-8.5618005e-5,"MEAN_MOTION_DOT":-2.617e-5,"MEAN_MOTION_DDOT":0},{"OBJECT_NAME":"OBJECT G","OBJECT_ID":"2025-155G","EPOCH":"2026-03-09T22:09:56.639808","MEAN_MOTION":15.27590702,"ECCENTRICITY":0.00081871,"INCLINATION":97.4488,"RA_OF_ASC_NODE":37.3259,"ARG_OF_PERICENTER":154.1528,"MEAN_ANOMALY":206.0122,"EPHEMERIS_TYPE":0,"CLASSIFICATION_TYPE":"U","NORAD_CAT_ID":64882,"ELEMENT_SET_NO":999,"REV_AT_EPOCH":6559,"BSTAR":0.0004792617,"MEAN_MOTION_DOT":0.00012876,"MEAN_MOTION_DDOT":0}]
